[{"OBJECT_NAME":"STARLINK-32015","OBJECT_ID":"2024-117W","EPOCH":"2026-03-09T21:38:33.752256","MEAN_MOTION":15.30198051,"ECCENTRICITY":0.00012414,"INCLINATION":53.1607,"RA_OF_ASC_NODE":35.7983,"ARG_OF_PERICENTER":90.3091,"MEAN_ANOMALY":269.8052,"EPHEMERIS_TYPE":0,"CLASSIFICATION_TYPE":"U","NORAD_CAT_ID":60111,"ELEMENT_SET_NO":999,"REV_AT_EPOCH":9692,"BSTAR":4.6290634e-5,"MEAN_MOTION_DOT":1.012e-5,"MEAN_MOTION_DDOT":0},{"OBJECT_NAME":"CZ-6A DEB","OBJECT_ID":"2024-140PU","EPOCH":"2026-03-09T02:24:11.901600","MEAN_MOTION":14.96529453,"ECCENTRICITY":0.01989751,"INCLINATION":89.1479,"RA_OF_ASC_NODE":289.7131,"ARG_OF_PERICENTER":96.8489,"MEAN_ANOMALY":265.5425,"EPHEMERIS_TYPE":0,"CLASSIFICATION_TYPE":"U","NORAD_CAT_ID":61126,"ELEMENT_SET_NO":999,"REV_AT_EPOCH":8404,"BSTAR":0.00070354239,"MEAN_MOTION_DOT":0.00012037,"MEAN_MOTION_DDOT":0}]
